MEAN_MOTION;ECCENTRICITY;INCLINATION;RA_OF_ASC_NODE;ARG_OF_PERICENTER;MEAN_ANOMALY;BSTAR;MEAN_MOTION_DOT;MEAN_MOTION_DDOT;TYPE
12.22007622;0.0002486;52.004;21.9412;284.0496;105.1104;3.1201E-5;-8.9E-7;0;Globalstar
12.22007601;0.0002478;52.0041;20.9801;285.0173;162.9342;3.1413E-5;-8.9E-7;0;Globalstar
12.22007633;0.0002482;52.0042;18.9308;286.9779;116.5601;8.9428E-5;-8.3E-7;0;Globalstar
12.22007635;0.0002479;52.0042;17.7076;288.0977;222.8028;0.00013806;-7.7E-7;0;Globalstar
12.22007659;0.0002478;52.0043;16.1421;289.5003;142.7131;0.00020239;-7.1E-7;0;Globalstar
12.22007659;0.0002482;52.0043;14.3101;291.0972;117.9522;0.00024808;-6.6E-7;0;Globalstar
12.22007669;0.0002482;52.0042;13.6269;291.6791;102.6386;0.00028389;-6.2E-7;0;Globalstar
12.22007686;0.0002483;52.0042;11.5416;293.5914;112.6105;0.00030703;-6.0E-7;0;Globalstar
12.220077;0.0002481;52.0042;8.7714;296.0739;109.8506;0.00029135;-6.1E-7;0;Globalstar
12.22007836;0.0002484;52.0042;5.3127;299.2671;99.9156;0.00031562;-5.9E-7;0;Globalstar
12.22007758;0.000248;52.0042;4.8037;299.7121;173.1679;0.00021211;-7.0E-7;0;Globalstar
12.22007778;0.0002477;52.0042;2.3034;301.9449;109.7879;0.0001177;-8.0E-7;0;Globalstar
12.22007802;0.0002465;52.0043;359.053;304.9721;135.3958;2.3286E-5;-9.0E-7;0;Globalstar
12.22007807;0.0002466;52.0043;358.6085;305.3108;108.1594;2.8824E-5;-8.9E-7;0;Globalstar
12.22007818;0.0002471;52.0043;356.5442;307.0616;85.3921;-2.1319E-5;-9.4E-7;0;Globalstar
12.22007809;0.0002474;52.0042;355.566;308.0356;169.8435;-1.7013E-5;-9.4E-7;0;Globalstar
12.22007814;0.0002474;52.0042;353.5134;309.9034;128.8719;-1.536E-5;-9.4E-7;0;Globalstar
12.22007801;0.000248;52.0042;352.5442;310.7381;199.3965;2.5678E-6;-9.2E-7;0;Globalstar
12.22007805;0.000248;52.0042;350.7437;312.4191;125.3118;3.8307E-5;-8.8E-7;0;Globalstar
12.22007799;0.0002482;52.0041;347.974;314.936;121.9604;0.00012378;-7.9E-7;0;Globalstar
12.22007792;0.0002481;52.004;347.2362;315.6464;191.7496;0.00015478;-7.6E-7;0;Globalstar
12.22007815;0.0002482;52.0039;345.204;317.6601;118.6206;0.00023067;-6.8E-7;0;Globalstar
12.22007792;0.000249;52.0039;344.2155;318.0795;219.2971;2.1116E-5;-9.0E-7;0;Globalstar
12.22007784;0.0002495;52.0039;342.1985;319.8774;122.643;7.6464E-7;-9.2E-7;0;Globalstar
12.22007764;0.0002494;52.0038;339.652;322.1177;131.1787;-1.1789E-5;-9.3E-7;0;Globalstar
12.22007774;0.0002494;52.0038;339.4296;322.2626;117.8214;-3.3302E-6;-9.2E-7;0;Globalstar
12.22007781;0.0002503;52.0036;336.6585;324.4106;116.7687;3.05E-5;-8.9E-7;0;Globalstar
12.22007761;0.0002505;52.0035;333.6444;326.963;134.1719;3.4025E-5;-8.9E-7;0;Globalstar
12.2200776;0.0002507;52.0034;333.1406;327.4329;199.235;4.0624E-5;-8.8E-7;0;Globalstar
12.2200776;0.0002507;52.0034;333.1406;327.4329;199.235;4.0624E-5;-8.8E-7;0;Globalstar
12.22007767;0.0002508;52.0033;331.1182;329.0676;111.0694;5.5205E-5;-8.6E-7;0;Globalstar
12.22007765;0.0002513;52.0033;330.3702;329.7336;196.8808;6.2423E-5;-8.6E-7;0;Globalstar
12.22007732;0.0002521;52.003;325.5782;333.5906;105.0771;2.6403E-5;-8.9E-7;0;Globalstar
12.22007735;0.000253;52.0029;324.836;334.2149;181.6017;3.4442E-5;-8.8E-7;0;Globalstar
12.22007716;0.0002535;52.0028;322.8081;335.8031;102.2356;-3.5626E-7;-9.2E-7;0;Globalstar
12.22007754;0.0002526;52.0028;321.8385;336.7899;173.1938;2.0043E-5;-9.0E-7;0;Globalstar
12.22007795;0.0002526;52.0027;319.5579;338.7188;127.3042;3.6674E-5;-8.8E-7;0;Globalstar
12.22007832;0.0002539;52.0025;317.0438;340.6096;85.6467;5.5955E-5;-8.6E-7;0;Globalstar
12.22007838;0.0002539;52.0025;316.7885;340.8422;123.469;6.1723E-5;-8.6E-7;0;Globalstar
12.22007888;0.0002543;52.0022;314.0194;343.5763;119.1301;0.0002681;-6.4E-7;0;Globalstar
12.22007891;0.0002545;52.0022;313.5136;344.0067;187.4846;0.00026083;-6.4E-7;0;Globalstar
12.22007933;0.0002554;52.0019;311.2495;345.6614;115.892;0.00026002;-6.5E-7;0;Globalstar
12.22007968;0.0002568;52.0017;308.4796;347.878;112.5046;0.00018877;-7.2E-7;0;Globalstar
12.22008014;0.0002571;52.0015;305.4477;350.3089;157.4487;0.0001133;-8.0E-7;0;Globalstar
12.22008025;0.0002572;52.0015;305.2073;350.5076;172.1779;0.00011363;-8.0E-7;0;Globalstar
12.2200804;0.0002568;52.0013;302.9356;352.1682;112.505;4.8246E-5;-8.7E-7;0;Globalstar
12.22008162;0.0002568;52.0012;300.1893;354.2474;72.3211;0.00011315;-8.0E-7;0;Globalstar
12.22008166;0.0002572;52.0012;299.9415;354.4393;98.5306;0.00012175;-7.9E-7;0;Globalstar
12.22008258;0.000257;52.0011;297.1726;356.501;93.5186;0.00020509;-7.0E-7;0;Globalstar
12.22008258;0.0002577;52.0011;296.9246;356.6666;120.0751;0.00020694;-7.0E-7;0;Globalstar
12.22008299;0.0002575;52.0011;294.871;358.1704;80.4473;0.00024962;-6.6E-7;0;Globalstar
12.22008313;0.0002586;52.001;292.6018;359.862;16.9457;0.0003018;-6.0E-7;0;Globalstar
12.22008331;0.000259;52.001;291.6205;0.6576;106.1275;0.00033614;-5.6E-7;0;Globalstar
12.22008363;0.0002585;52.001;288.591;2.7176;147.5963;0.0003691;-5.3E-7;0;Globalstar
12.22008362;0.0002595;52.0009;286.0814;4.4595;98.9095;0.00031401;-5.9E-7;0;Globalstar
12.22008366;0.0002602;52.0009;284.2876;5.6495;14.5396;0.00025683;-6.5E-7;0;Globalstar
12.22008389;0.0002596;52.0008;283.0828;6.4908;92.2413;0.00022893;-6.8E-7;0;Globalstar
12.22008396;0.0002591;52.0008;281.2771;7.6662;26.5087;0.00013351;-7.8E-7;0;Globalstar
12.22008431;0.0002591;52.0008;280.0364;8.4741;160.1341;0.00012577;-7.9E-7;0;Globalstar
12.2200842;0.0002597;52.0007;277.51;10.2043;137.6297;-4.3786E-6;-9.3E-7;0;Globalstar
12.22008435;0.0002597;52.0007;277.2943;10.3422;113.7874;2.9657E-6;-9.2E-7;0;Globalstar
12.22008421;0.0002594;52.0007;274.9985;11.8822;91.7961;-9.4826E-5;-1.02E-6;0;Globalstar
12.22008397;0.0002596;52.0007;272.702;13.4099;70.9662;-0.0001636;-1.1E-6;0;Globalstar
12.22008388;0.0002599;52.0007;272.4737;13.5873;66.7277;-0.00016662;-1.1E-6;0;Globalstar
12.22008396;0.0002605;52.0008;270.1856;15.1109;32.9171;-0.00011398;-1.04E-6;0;Globalstar
12.22008376;0.0002607;52.0009;266.9335;17.2306;61.4614;-2.8146E-5;-9.5E-7;0;Globalstar
12.22008376;0.0002607;52.0009;266.9335;17.2306;61.4614;-2.8146E-5;-9.5E-7;0;Globalstar
12.22008411;0.0002621;52.0009;263.448;19.5485;93.772;0.00016183;-7.5E-7;0;Globalstar
12.22008417;0.0002619;52.0009;263.1932;19.662;131.0388;0.00017096;-7.4E-7;0;Globalstar
12.22008446;0.0002624;52.0011;260.4285;21.4005;120.2216;0.00025985;-6.5E-7;0;Globalstar
12.22008446;0.0002624;52.0011;260.4285;21.4005;120.2216;0.00025985;-6.5E-7;0;Globalstar
12.22008452;0.0002621;52.0011;257.9144;22.8448;79.0594;0.00025549;-6.5E-7;0;Globalstar
12.22008428;0.0002623;52.0011;255.8537;24.1484;50.8013;0.00015581;-7.6E-7;0;Globalstar
12.22008436;0.0002625;52.0011;254.8895;24.6848;113.8208;0.00014215;-7.7E-7;0;Globalstar
12.22008394;0.0002619;52.0013;252.8497;25.7429;53.7891;-4.3156E-5;-9.7E-7;0;Globalstar
12.22008361;0.0002627;52.0013;249.3304;27.7832;139.1403;-4.0201E-5;-9.6E-7;0;Globalstar
12.22008367;0.000263;52.0013;247.063;29.1836;73.3385;-7.3726E-6;-9.3E-7;0;Globalstar
12.22008402;0.0002638;52.0013;244.5377;30.7534;49.3429;4.2122E-5;-8.8E-7;0;Globalstar
12.22008351;0.000265;52.001;241.5459;32.8747;32.2821;-0.00024704;-1.18E-6;0;Globalstar
12.22008371;0.000265;52.001;240.8003;33.3056;114.3914;-0.00018663;-1.12E-6;0;Globalstar
12.22008397;0.0002651;52.001;238.0288;34.8778;114.5235;-1.9032E-6;-9.2E-7;0;Globalstar
12.22008422;0.0002653;52.001;236.9535;35.4429;350.6774;0.00010669;-8.1E-7;0;Globalstar
12.22008465;0.0002659;52.001;235.2773;36.5715;83.1321;0.00025546;-6.5E-7;0;Globalstar
12.22008461;0.000266;52.0011;233.2331;37.7926;29.4358;0.00033804;-5.6E-7;0;Globalstar
12.22008481;0.0002664;52.0011;232.4685;38.1794;141.2999;0.00039096;-5.1E-7;0;Globalstar
12.22008499;0.0002669;52.0011;229.7231;39.6542;100.783;0.00043873;-4.6E-7;0;Globalstar
12.22008524;0.0002672;52.0011;227.2097;41.1171;58.602;0.00040571;-4.9E-7;0;Globalstar
12.22008561;0.000267;52.0011;224.6695;42.4456;58.3806;0.00030101;-6.0E-7;0;Globalstar
12.22008579;0.0002671;52.0011;224.1844;42.7009;94.5699;0.00028615;-6.2E-7;0;Globalstar
12.22008593;0.0002668;52.001;221.8996;43.9058;56.1345;0.00011597;-8.0E-7;0;Globalstar
12.22008609;0.000267;52.001;221.4151;44.1638;91.3965;9.7525E-5;-8.2E-7;0;Globalstar
12.22008614;0.000267;52.0009;219.129;45.4162;55.0625;-6.8912E-5;-9.9E-7;0;Globalstar
12.2200864;0.0002673;52.0008;218.4033;45.8222;106.2157;-8.5569E-5;-1.01E-6;0;Globalstar
12.22008672;0.0002675;52.0007;215.6343;47.3675;102.6445;-0.00015991;-1.09E-6;0;Globalstar
12.22008663;0.0002678;52.0006;214.3205;48.1241;350.4501;-0.00019157;-1.13E-6;0;Globalstar
12.22008666;0.0002681;52.0005;212.8648;48.9588;99.5414;-0.00016657;-1.1E-6;0;Globalstar
12.22008676;0.0002679;52.0004;210.8416;50.1248;13.2413;-8.0483E-5;-1.01E-6;0;Globalstar
12.22008684;0.0002681;52.0003;210.0936;50.5094;99.1816;-3.3088E-5;-9.6E-7;0;Globalstar
12.22008708;0.0002685;52.0002;207.3221;52.0509;99.3028;0.00017335;-7.4E-7;0;Globalstar
12.22008732;0.0002688;52.0001;204.5514;53.5617;97.897;0.00036501;-5.3E-7;0;Globalstar
12.22008757;0.0002688;52;202.2524;54.866;81.4144;0.00048802;-4.0E-7;0;Globalstar
12.22008766;0.0002689;52;201.7874;55.052;86.2419;0.00050402;-3.9E-7;0;Globalstar
12.22008834;0.0002688;51.9999;199.0183;56.5279;82.7148;0.00056639;-3.2E-7;0;Globalstar
12.22008876;0.0002689;51.9998;196.505;57.9015;40.1101;0.00049408;-4.0E-7;0;Globalstar
12.22008883;0.0002689;51.9998;196.2487;57.9954;79.6605;0.00048284;-4.1E-7;0;Globalstar
12.22008908;0.0002685;51.9997;194.6989;58.8672;335.4209;0.0003807;-5.2E-7;0;Globalstar
12.2200894;0.0002687;51.9996;193.4793;59.4751;76.5014;0.00032057;-5.8E-7;0;Globalstar
12.2200896;0.0002687;51.9995;190.9659;60.9114;34.092;0.00011403;-8.0E-7;0;Globalstar
12.2200897;0.0002688;51.9995;190.4667;61.1479;92.2011;7.2381E-5;-8.4E-7;0;Globalstar
12.22009002;0.0002691;51.9993;187.6977;62.603;88.4903;-9.0126E-5;-1.02E-6;0;Globalstar
12.22009022;0.0002693;51.9992;184.9287;64.1661;84.6455;-0.0001551;-1.09E-6;0;Globalstar
12.22009026;0.0002693;51.9991;182.6579;65.4602;24.2025;-0.00013597;-1.07E-6;0;Globalstar
12.22009034;0.0002692;51.999;182.1584;65.6548;82.8086;-0.00011833;-1.05E-6;0;Globalstar
